[{"OBJECT_NAME":"STARLINK-35933","OBJECT_ID":"2025-265P","EPOCH":"2026-03-09T21:53:33.594432","MEAN_MOTION":15.27609192,"ECCENTRICITY":0.00015349,"INCLINATION":43.001,"RA_OF_ASC_NODE":277.0061,"ARG_OF_PERICENTER":264.9236,"MEAN_ANOMALY":95.144,"EPHEMERIS_TYPE":0,"CLASSIFICATION_TYPE":"U","NORAD_CAT_ID":66529,"ELEMENT_SET_NO":999,"REV_AT_EPOCH":1714,"BSTAR":0.00090324602,"MEAN_MOTION_DOT":0.00024699,"MEAN_MOTION_DDOT":0},{"OBJECT_NAME":"OBJECT F","OBJECT_ID":"2021-022F","EPOCH":"2026-03-09T23:37:37.165152","MEAN_MOTION":15.31317672,"ECCENTRICITY":0.00120882,"INCLINATION":97.3982,"RA_OF_ASC_NODE":329.8375,"ARG_OF_PERICENTER":85.9268,"MEAN_ANOMALY":274.3355,"EPHEMERIS_TYPE":0,"CLASSIFICATION_TYPE":"U","NORAD_CAT_ID":47937,"ELEMENT_SET_NO":999,"REV_AT_EPOCH":27452,"BSTAR":0.00038690553,"MEAN_MOTION_DOT":0.00011656,"MEAN_MOTION_DDOT":0}]
